COMMENT,ORIGINATOR,NORAD_CAT_ID,OBJECT_NAME,OBJECT_TYPE,CLASSIFICATION_TYPE,INTLDES,EPOCH,EPOCH_MICROSECONDS,MEAN_MOTION,ECCENTRICITY,INCLINATION,RA_OF_ASC_NODE,ARG_OF_PERICENTER,MEAN_ANOMALY,EPHEMERIS_TYPE,ELEMENT_SET_NO,REV_AT_EPOCH,BSTAR,MEAN_MOTION_DOT,MEAN_MOTION_DDOT,FILE,TLE_LINE0,TLE_LINE1,TLE_LINE2,OBJECT_ID,OBJECT_NUMBER,SEMIMAJOR_AXIS,PERIOD,APOGEE,PERIGEE
"GENERATED VIA SPACETRACK.ORG API","JSPOC","36088","SJ-11-01","PAYLOAD","U","09061A","2016-01-13 11:47:14","725824","14.59772257","0.0012771","98.2124","62.6894","90.5547","269.7122","0","999","32867","5.4324e-05","2.13e-06","0","1979849","0 SJ-11-01","1 36088U 09061A   16013.49114266  .00000213  00000-0  54324-4 0  9993","2 36088  98.2124  62.6894 0012771  90.5547 269.7122 14.59772257328670","2009-061A","36088","7072.046","98.645","702.943","684.879"
"GENERATED VIA SPACETRACK.ORG API","JSPOC","15643","LEASAT 3","PAYLOAD","U","85028C","2016-01-13 11:47:19","887360","0.96962608","0.0079162","17.5351","346.2785","202.2087","312.1064","0","999","9975","0","-1.07e-06","0","1979849","0 LEASAT 3","1 15643U 85028C   16013.49120240 -.00000107  00000-0  00000+0 0  9993","2 15643  17.5351 346.2785 0079162 202.2087 312.1064  0.96962608 99757","1985-028C","15643","43118.699","1485.108","37081.900","36399.227"
"GENERATED VIA SPACETRACK.ORG API","JSPOC","26545","SAUDISAT 1A","PAYLOAD","U","00057A","2016-01-13 11:47:23","62560","14.8441855","0.0048444","64.5545","261.8143","302.6067","57.0368","0","999","82704","7.0865e-05","4.55e-06","0","1979841","0 SAUDISAT 1A","1 26545U 00057A   16013.49123915  .00000455  00000-0  70865-4 0  9993","2 26545  64.5545 261.8143 0048444 302.6067  57.0368 14.84418550827046","2000-057A","26545","6993.548","97.007","649.293","581.533"
"GENERATED VIA SPACETRACK.ORG API","JSPOC","16483","SATCOM K1 R/B(PAM-D2)","ROCKET BODY","U","86003C","2016-01-13 11:47:24","169344","2.44832727","0.7106047","26.8973","251.5671","96.8404","341.2927","0","999","26028","0.00075962","3.99e-06","0","1980270","0 SATCOM K1 R/B(PAM-D2)","1 16483U 86003C   16013.49125196 +.00000399 +00000-0 +75962-3 0  9990","2 16483 026.8973 251.5671 7106047 096.8404 341.2927 02.44832727260287","1986-003C","16483","23253.528","588.156","33399.460","351.326"
"GENERATED VIA SPACETRACK.ORG API","JSPOC","2150","OPS 1527 (OV3-1)","PAYLOAD","U","66034A","2016-01-13 11:47:30","994080","12.00592028","0.1667526","82.3742","79.7785","84.2829","294.5144","0","999","93766","0.00036071","5.715e-05","0","1979826","0 OPS 1527 (OV3-1)","1 02150U 66034A   16013.49133095  .00005715  00000-0  36071-3 0  9990","2 02150  82.3742  79.7785 1667526  84.2829 294.5144 12.00592028937664","1966-034A","2150","8056.347","119.940","3021.629","334.795"
"GENERATED VIA SPACETRACK.ORG API","JSPOC","39769","RISING 2","PAYLOAD","U","14029D","2016-01-13 11:47:32","942400","14.81598185","0.0004549","97.8749","110.6386","153.9932","206.1513","0","999","8871","5.9405e-05","4.15e-06","0","1979849","0 RISING 2","1 39769U 14029D   16013.49135350  .00000415  00000-0  59405-4 0  9998","2 39769  97.8749 110.6386 0004549 153.9932 206.1513 14.81598185 88711","2014-029D","39769","7002.420","97.192","627.471","621.100"
"GENERATED VIA SPACETRACK.ORG API","JSPOC","14894","SL-6 R/B(2)","ROCKET BODY","U","84033D","2016-01-13 11:47:36","42432","2.03819077","0.6582776","68.9435","148.7286","16.5321","357.2131","0","999","17585","0","4.12e-06","0","1979848","0 SL-6 R/B(2)","1 14894U 84033D   16013.49138938  .00000412  00000-0  00000+0 0  9996","2 14894  68.9435 148.7286 6582776  16.5321 357.2131  2.03819077175853","1984-033D","14894","26276.768","706.508","37196.041","2601.225"
"GENERATED VIA SPACETRACK.ORG API","JSPOC","25869","IUS R/B(2)","ROCKET BODY","U","99040D","2016-01-13 11:47:42","880128","0.97232233","0.8050231","33.55","236.7765","160.4754","92.2914","0","999","5850","0","-2.8e-07","0","1980270","0 IUS R/B(2)","1 25869U 99040D   16013.49146852 -.00000028 +00000-0 +00000-0 0  9993","2 25869 033.5500 236.7765 8050231 160.4754 092.2914 00.97232233058506","1999-040D","25869","43038.950","1480.990","71308.164","2013.466"
"GENERATED VIA SPACETRACK.ORG API","JSPOC","40736","FLOCK 1E 9","PAYLOAD","U","98067GN","2016-01-13 11:47:46","983264","15.83329011","0.0007504","51.6518","103.7553","326.2993","121.0474","0","999","2849","0.0015232","0.00351477","0","1979848","0 FLOCK 1E 9","1 40736U 98067GN  16013.49151601  .00351477  00000-0  15232-2 0  9990","2 40736  51.6518 103.7553 0007504 326.2993 121.0474 15.83329011 28497","1998-067GN","40736","6699.170","90.947","326.063","316.008"
"GENERATED VIA SPACETRACK.ORG API","JSPOC","40011","HODOYOSHI 4","PAYLOAD","U","14033B","2016-01-13 11:47:55","99680","14.80554462","0.0027303","97.9341","272.9784","159.1755","201.0581","0","999","8470","6.8668e-05","4.76e-06","0","1979846","0 HODOYOSHI 4","1 40011U 14033B   16013.49160995  .00000476  00000-0  68668-4 0  9996","2 40011  97.9341 272.9784 0027303 159.1755 201.0581 14.80554462 84703","2014-033B","40011","7005.711","97.260","646.704","608.448"
"GENERATED VIA SPACETRACK.ORG API","JSPOC","19650","SL-16 R/B","ROCKET BODY","U","88102B","2016-01-13 11:48:02","296800","14.1572999","0.0016656","71","29.9487","257.335","102.5911","0","999","40202","5.8355e-05","6.7e-07","0","1980270","0 SL-16 R/B","1 19650U 88102B   16013.49169325 +.00000067 +00000-0 +58355-4 0  9993","2 19650 071.0000 029.9487 0016656 257.3350 102.5911 14.15729990402023","1988-102B","19650","7217.966","101.714","851.854","827.809"
"GENERATED VIA SPACETRACK.ORG API","JSPOC","39020","EUTE 70B","PAYLOAD","U","12069A","2016-01-13 11:48:15","473664","1.00271725","0.000366","0.0655","30.0351","249.2237","80.6886","0","999","1143","0","-4.6e-07","0","1979902","0 EUTE 70B","1 39020U 12069A   16013.49184576 -.00000046  00000-0  00000+0 0  9997","2 39020   0.0655  30.0351 0003660 249.2237  80.6886  1.00271725 11438","2012-069A","39020","42164.748","1436.097","35802.046","35771.181"
"GENERATED VIA SPACETRACK.ORG API","JSPOC","39020","EUTE 70B","PAYLOAD","U","12069A","2016-01-13 11:48:15","433056","1.00271726","0.0003656","0.0654","30.4064","249.2157","80.3255","0","999","1133","0","-4.6e-07","0","1980270","0 EUTE 70B","1 39020U 12069A   16013.49184529 -.00000046 +00000-0 +00000-0 0  9996","2 39020 000.0654 030.4064 0003656 249.2157 080.3255 01.00271726011335","2012-069A","39020","42164.748","1436.097","35802.028","35771.198"
"GENERATED VIA SPACETRACK.ORG API","JSPOC","33493","PRISM (HITOMI)","PAYLOAD","U","09002B","2016-01-13 11:48:27","205920","14.94355991","0.0016126","98.2328","226.1224","3.8169","356.3159","0","999","37797","0.00025293","2.663e-05","0","1979846","0 PRISM (HITOMI)","1 33493U 09002B   16013.49198155  .00002663  00000-0  25293-3 0  9997","2 33493  98.2328 226.1224 0016126   3.8169 356.3159 14.94355991377973","2009-002B","33493","6962.509","96.362","595.602","573.146"
"GENERATED VIA SPACETRACK.ORG API","JSPOC","27942","UK-DMC","PAYLOAD","U","03042D","2016-01-13 11:48:34","523136","14.78728809","0.0062058","97.7393","198.3416","331.5339","28.2487","0","999","65932","7.3626e-05","5.04e-06","0","1979846","0 UK-DMC","1 27942U 03042D   16013.49206624  .00000504  00000-0  73626-4 0  9994","2 27942  97.7393 198.3416 0062058 331.5339  28.2487 14.78728809659324","2003-042D","27942","7011.476","97.380","676.853","589.829"
"GENERATED VIA SPACETRACK.ORG API","JSPOC","22006","COSMOS 2195","PAYLOAD","U","92036A","2016-01-13 11:48:55","384416","13.74889647","0.0038486","82.934","2.0904","94.1718","19.5392","0","999","18087","2.608e-05","4.1e-07","0","1979849","0 COSMOS 2195","1 22006U 92036A   16013.49230769  .00000041  00000-0  26080-4 0  9996","2 22006  82.9340   2.0904 0038486  94.1718  19.5392 13.74889647180872","1992-036A","22006","7360.205","104.735","1010.397","953.744"
"GENERATED VIA SPACETRACK.ORG API","JSPOC","28649","CARTOSAT-1","PAYLOAD","U","05017A","2016-01-13 11:48:58","368672","14.83430087","0.0001449","97.9167","88.3589","348.3336","11.7857","0","999","57878","6.7682e-05","5.02e-06","0","1979847","0 CARTOSAT-1","1 28649U 05017A   16013.49234223  .00000502  00000-0  67682-4 0  9992","2 28649  97.9167  88.3589 0001449 348.3336  11.7857 14.83430087578781","2005-017A","28649","6996.654","97.072","619.533","617.506"
"GENERATED VIA SPACETRACK.ORG API","JSPOC","29644","AMC-18","PAYLOAD","U","06054B","2016-01-13 11:49:02","926272","1.00272791","0.0002333","0.044","290.6651","3.4675","250.5864","0","999","3337","0","-9.2e-07","0","1979846","0 AMC-18","1 29644U 06054B   16013.49239498 -.00000092  00000-0  00000+0 0  9990","2 29644   0.0440 290.6651 0002333   3.4675 250.5864  1.00272791 33375","2006-054B","29644","42164.449","1436.082","35796.151","35776.477"
"GENERATED VIA SPACETRACK.ORG API","JSPOC","3229","COSMOS 220","PAYLOAD","U","68040A","2016-01-13 11:49:03","729792","14.75752516","0.0038966","74.028","90.3676","256.9898","102.6924","0","999","54933","6.7439e-05","4.32e-06","0","1979812","0 COSMOS 220","1 03229U 68040A   16013.49240428  .00000432  00000-0  67439-4 0  9990","2 03229  74.0280  90.3676 0038966 256.9898 102.6924 14.75752516549330","1968-040A","3229","7020.900","97.577","670.123","615.407"
"GENERATED VIA SPACETRACK.ORG API","JSPOC","11474","MOLNIYA 1-44","PAYLOAD","U","79070A","2016-01-13 11:49:03","729792","11.19175975","0.2209959","62.0968","54.4409","286.2632","50.7648","0","999","50275","0.00076504","0.00140711","2.1995e-06","1979846","0 MOLNIYA 1-44","1 11474U 79070A   16013.49240428  .00140711  21995-5  76504-3 0  9994","2 11474  62.0968  54.4409 2209959 286.2632  50.7648 11.19175975502756","1979-070A","11474","8442.471","128.666","3930.087","198.584"
